start=new Date('2023-02-20T00:00:00.000Z').valueOf();
sats=[{"ARG_OF_PERICENTER":"86.1088","MEAN_MOTION":"15.08834952","LAUNCH_DATE":"2022-10-28","EPOCH":"2023-02-19T19:09:19.284768","MEAN_ANOMALY":"274.0049","BSTAR":"0.00012853000000","TIME_SYSTEM":"UTC","GP_ID":"226056558","ELEMENT_SET_NO":"999","PERIAPSIS":"538.886","REV_AT_EPOCH":"1807","MEAN_MOTION_DOT":"0.00001758","RA_OF_ASC_NODE":"314.1754","PERIOD":"95.438","OBJECT_ID":"2022-141BC","SITE":"AFWTR","CENTER_NAME":"EARTH","SEMIMAJOR_AXIS":"6917.896","CLASSIFICATION_TYPE":"U","TLE_LINE1":"1 54207U 22141BC  23050.79813987  .00001758  00000-0  12853-3 0  9993","OBJECT_TYPE":"PAYLOAD","DECAY_DATE":null,"TLE_LINE2":"2 54207  53.2162 314.1754 0001264  86.1088 274.0049 15.08834952 18075","OBJECT_NAME":"STARLINK-5262","MEAN_ELEMENT_THEORY":"SGP4","INCLINATION":"53.2162","APOAPSIS":"540.635","ECCENTRICITY":"0.00012640","EPHEMERIS_TYPE":"0","REF_FRAME":"TEME","NORAD_CAT_ID":"54207","FILE":"3811897","RCS_SIZE":"LARGE","COUNTRY_CODE":"US","MEAN_MOTION_DDOT":"0.0000000000000"},{"GP_ID":"226056585","OBJECT_ID":"2022-141BD","RA_OF_ASC_NODE":"295.7850","PERIOD":"91.518","MEAN_MOTION_DOT":"-0.00224477","REV_AT_EPOCH":"1833","PERIAPSIS":"347.042","ELEMENT_SET_NO":"999","EPOCH":"2023-02-19T19:57:18.400608","LAUNCH_DATE":"2022-10-28","MEAN_MOTION":"15.73461552","ARG_OF_PERICENTER":"193.4661","TIME_SYSTEM":"UTC","BSTAR":"-0.00161910000000","MEAN_ANOMALY":"166.6282","RCS_SIZE":"LARGE","FILE":"3811899","REF_FRAME":"TEME","NORAD_CAT_ID":"54208","EPHEMERIS_TYPE":"0","ECCENTRICITY":"0.00029320","APOAPSIS":"350.987","MEAN_MOTION_DDOT":"0.0000000000000","COUNTRY_CODE":"US","CLASSIFICATION_TYPE":"U","SEMIMAJOR_AXIS":"6727.150","CENTER_NAME":"EARTH","SITE":"AFWTR","MEAN_ELEMENT_THEORY":"SGP4","INCLINATION":"53.2139","OBJECT_NAME":"STARLINK-5255","TLE_LINE2":"2 54208  53.2139 295.7850 0002932 193.4661 166.6282 15.73461552 18331","DECAY_DATE":null,"OBJECT_TYPE":"PAYLOAD","TLE_LINE1":"1 54208U 22141BD  23050.83146297 -.00224477  00000-0 -16191-2 0  9997"},{"BSTAR":"0.00033590000000","MEAN_ANOMALY":"282.7359","TIME_SYSTEM":"UTC","ARG_OF_PERICENTER":"77.3794","MEAN_MOTION":"15.08819444","EPOCH":"2023-02-19T09:43:38.519616","LAUNCH_DATE":"2022-10-28","MEAN_MOTION_DOT":"0.00005059","REV_AT_EPOCH":"1792","PERIAPSIS":"538.814","ELEMENT_SET_NO":"999","PERIOD":"95.439","RA_OF_ASC_NODE":"305.9878","OBJECT_ID":"2022-141BE","GP_ID":"226050054","TLE_LINE1":"1 54209U 22141BE  23050.40530694  .00005059  00000-0  33590-3 0  9993","OBJECT_TYPE":"PAYLOAD","TLE_LINE2":"2 54209  53.2130 305.9878 0001437  77.3794 282.7359 15.08819444 17927","DECAY_DATE":null,"MEAN_ELEMENT_THEORY":"SGP4","INCLINATION":"53.2130","OBJECT_NAME":"STARLINK-5259","SITE":"AFWTR","CENTER_NAME":"EARTH","SEMIMAJOR_AXIS":"6917.943","CLASSIFICATION_TYPE":"U","COUNTRY_CODE":"US","MEAN_MOTION_DDOT":"0.0000000000000","APOAPSIS":"540.802","ECCENTRICITY":"0.00014370","EPHEMERIS_TYPE":"0","RCS_SIZE":"LARGE","FILE":"3811610","NORAD_CAT_ID":"54209","REF_FRAME":"TEME"},{"CENTER_NAME":"EARTH","SITE":"AFETR","SEMIMAJOR_AXIS":"6917.941","CLASSIFICATION_TYPE":"U","OBJECT_TYPE":"PAYLOAD","TLE_LINE1":"1 54758U 22175A   23050.98088135  .00004803  00000-0  31986-3 0  9993","TLE_LINE2":"2 54758  53.2135 358.9942 0001980  77.2649 282.8564 15.08820272  8416","DECAY_DATE":null,"INCLINATION":"53.2135","MEAN_ELEMENT_THEORY":"SGP4","OBJECT_NAME":"STARLINK-5464","APOAPSIS":"541.175","ECCENTRICITY":"0.00019800","EPHEMERIS_TYPE":"0","FILE":"3813124","RCS_SIZE":"LARGE","REF_FRAME":"TEME","NORAD_CAT_ID":"54758","COUNTRY_CODE":"US","MEAN_MOTION_DDOT":"0.0000000000000","ARG_OF_PERICENTER":"77.2649","MEAN_MOTION":"15.08820272","EPOCH":"2023-02-19T23:32:28.148640","LAUNCH_DATE":"2022-12-17","BSTAR":"0.00031986000000","MEAN_ANOMALY":"282.8564","TIME_SYSTEM":"UTC","GP_ID":"226080662","MEAN_MOTION_DOT":"0.00004803","PERIAPSIS":"538.436","ELEMENT_SET_NO":"999","REV_AT_EPOCH":"841","PERIOD":"95.439","RA_OF_ASC_NODE":"358.9942","OBJECT_ID":"2022-175A"},{"COUNTRY_CODE":"US","MEAN_MOTION_DDOT":"0.0000000000000","APOAPSIS":"540.550","ECCENTRICITY":"0.00011280","EPHEMERIS_TYPE":"0","FILE":"3811371","RCS_SIZE":"LARGE","NORAD_CAT_ID":"54759","REF_FRAME":"TEME","OBJECT_TYPE":"PAYLOAD","TLE_LINE1":"1 54759U 22175B   23050.75002315  .00077375  00000-0  48279-2 0  9991","TLE_LINE2":"2 54759  53.2158 359.7860 0001128 100.9341 204.6615 15.08832066  9668","DECAY_DATE":null,"INCLINATION":"53.2158","MEAN_ELEMENT_THEORY":"SGP4","OBJECT_NAME":"STARLINK-5215","SITE":"AFETR","CENTER_NAME":"EARTH","SEMIMAJOR_AXIS":"6917.905","CLASSIFICATION_TYPE":"U","MEAN_MOTION_DOT":"0.00077375","ELEMENT_SET_NO":"999","PERIAPSIS":"538.989","REV_AT_EPOCH":"966","RA_OF_ASC_NODE":"359.7860","PERIOD":"95.438","OBJECT_ID":"2022-175B","GP_ID":"226019008","BSTAR":"0.00482790000000","MEAN_ANOMALY":"204.6615","TIME_SYSTEM":"UTC","ARG_OF_PERICENTER":"100.9341","MEAN_MOTION":"15.08832066","EPOCH":"2023-02-19T18:00:02.000160","LAUNCH_DATE":"2022-12-17"},{"COUNTRY_CODE":"US","MEAN_MOTION_DDOT":"0.0000000000000","APOAPSIS":"540.277","ECCENTRICITY":"0.00007380","EPHEMERIS_TYPE":"0","FILE":"3811610","RCS_SIZE":"LARGE","NORAD_CAT_ID":"54760","REF_FRAME":"TEME","TLE_LINE1":"1 54760U 22175C   23050.58017488  .00001815  00000-0  13212-3 0  9997","OBJECT_TYPE":"PAYLOAD","TLE_LINE2":"2 54760  53.2195   5.7435 0000738  90.4768 269.6309 15.08833046 11729","DECAY_DATE":null,"MEAN_ELEMENT_THEORY":"SGP4","INCLINATION":"53.2195","OBJECT_NAME":"STARLINK-5220","SITE":"AFETR","CENTER_NAME":"EARTH","SEMIMAJOR_AXIS":"6917.902","CLASSIFICATION_TYPE":"U","MEAN_MOTION_DOT":"0.00001815","REV_AT_EPOCH":"1172","PERIAPSIS":"539.256","ELEMENT_SET_NO":"999","RA_OF_ASC_NODE":"5.7435","PERIOD":"95.438","OBJECT_ID":"2022-175C","GP_ID":"226049114","BSTAR":"0.00013212000000","MEAN_ANOMALY":"269.6309","TIME_SYSTEM":"UTC","ARG_OF_PERICENTER":"90.4768","MEAN_MOTION":"15.08833046","EPOCH":"2023-02-19T13:55:27.109632","LAUNCH_DATE":"2022-12-17"},{"OBJECT_NAME":"STARLINK-5202","MEAN_ELEMENT_THEORY":"SGP4","INCLINATION":"53.2191","DECAY_DATE":null,"TLE_LINE2":"2 54761  53.2191   5.7679 0000119  98.7561 261.3445 15.08830612 11727","OBJECT_TYPE":"PAYLOAD","TLE_LINE1":"1 54761U 22175D   23050.58386162  .00002364  00000-0  16659-3 0  9994","CLASSIFICATION_TYPE":"U","SEMIMAJOR_AXIS":"6917.909","CENTER_NAME":"EARTH","SITE":"AFETR","MEAN_MOTION_DDOT":"0.0000000000000","COUNTRY_CODE":"US","NORAD_CAT_ID":"54761","REF_FRAME":"TEME","RCS_SIZE":"LARGE","FILE":"3811610","EPHEMERIS_TYPE":"0","ECCENTRICITY":"0.00001190","APOAPSIS":"539.856","TIME_SYSTEM":"UTC","MEAN_ANOMALY":"261.3445","BSTAR":"0.00016659000000","LAUNCH_DATE":"2022-12-17","EPOCH":"2023-02-19T14:00:45.643968","MEAN_MOTION":"15.08830612","ARG_OF_PERICENTER":"98.7561","OBJECT_ID":"2022-175D","PERIOD":"95.438","RA_OF_ASC_NODE":"5.7679","PERIAPSIS":"539.692","REV_AT_EPOCH":"1172","ELEMENT_SET_NO":"999","MEAN_MOTION_DOT":"0.00002364","GP_ID":"226049366"},{"PERIOD":"95.438","RA_OF_ASC_NODE":"3.9153","OBJECT_ID":"2022-175E","MEAN_MOTION_DOT":"-0.00000894","PERIAPSIS":"539.305","REV_AT_EPOCH":"962","ELEMENT_SET_NO":"999","GP_ID":"226082383","TIME_SYSTEM":"UTC","BSTAR":"-0.00003812100000","MEAN_ANOMALY":"224.0793","MEAN_MOTION":"15.08833297","EPOCH":"2023-02-19T23:18:32.540544","LAUNCH_DATE":"2022-12-17","ARG_OF_PERICENTER":"136.0252","COUNTRY_CODE":"US","MEAN_MOTION_DDOT":"0.0000000000000","EPHEMERIS_TYPE":"0","FILE":"3813201","RCS_SIZE":"LARGE","REF_FRAME":"TEME","NORAD_CAT_ID":"54762","APOAPSIS":"540.227","ECCENTRICITY":"0.00006660","INCLINATION":"53.2188","MEAN_ELEMENT_THEORY":"SGP4","OBJECT_NAME":"STARLINK-5214","TLE_LINE1":"1 54762U 22175E   23050.97120996 -.00000894  00000-0 -38121-4 0  9996","OBJECT_TYPE":"PAYLOAD","TLE_LINE2":"2 54762  53.2188   3.9153 0000666 136.0252 224.0793 15.08833297  9621","DECAY_DATE":null,"SEMIMAJOR_AXIS":"6917.901","CLASSIFICATION_TYPE":"U","CENTER_NAME":"EARTH","SITE":"AFETR"},{"FILE":"3811610","RCS_SIZE":"LARGE","NORAD_CAT_ID":"54763","REF_FRAME":"TEME","EPHEMERIS_TYPE":"0","ECCENTRICITY":"0.00017860","APOAPSIS":"541.002","MEAN_MOTION_DDOT":"0.0000000000000","COUNTRY_CODE":"US","CLASSIFICATION_TYPE":"U","SEMIMAJOR_AXIS":"6917.901","SITE":"AFETR","CENTER_NAME":"EARTH","MEAN_ELEMENT_THEORY":"SGP4","INCLINATION":"53.2194","OBJECT_NAME":"STARLINK-5191","TLE_LINE2":"2 54763  53.2194   5.7169 0001786  79.6450 280.4743 15.08833155 11720","DECAY_DATE":null,"TLE_LINE1":"1 54763U 22175F   23050.57649610  .00002202  00000-0  15641-3 0  9996","OBJECT_TYPE":"PAYLOAD","GP_ID":"226048365","OBJECT_ID":"2022-175F","PERIOD":"95.438","RA_OF_ASC_NODE":"5.7169","MEAN_MOTION_DOT":"0.00002202","REV_AT_EPOCH":"1172","PERIAPSIS":"538.531","ELEMENT_SET_NO":"999","EPOCH":"2023-02-19T13:50:09.263040","LAUNCH_DATE":"2022-12-17","MEAN_MOTION":"15.08833155","ARG_OF_PERICENTER":"79.6450","TIME_SYSTEM":"UTC","BSTAR":"0.00015641000000","MEAN_ANOMALY":"280.4743"},{"TIME_SYSTEM":"UTC","BSTAR":"0.00014995000000","MEAN_ANOMALY":"282.0056","EPOCH":"2023-02-19T13:39:31.837536","LAUNCH_DATE":"2022-12-17","MEAN_MOTION":"15.08831754","ARG_OF_PERICENTER":"78.1065","OBJECT_ID":"2022-175G","PERIOD":"95.438","RA_OF_ASC_NODE":"5.6683","MEAN_MOTION_DOT":"0.00002099","PERIAPSIS":"538.974","REV_AT_EPOCH":"1172","ELEMENT_SET_NO":"999","GP_ID":"226048615","INCLINATION":"53.2173","MEAN_ELEMENT_THEORY":"SGP4","OBJECT_NAME":"STARLINK-5458","TLE_LINE2":"2 54764  53.2173   5.6683 0001152  78.1065 282.0056 15.08831754 11729","DECAY_DATE":null,"OBJECT_TYPE":"PAYLOAD","TLE_LINE1":"1 54764U 22175G   23050.56911849  .00002099  00000-0  14995-3 0  9997","CLASSIFICATION_TYPE":"U","SEMIMAJOR_AXIS":"6917.906","CENTER_NAME":"EARTH","SITE":"AFETR","MEAN_MOTION_DDOT":"0.0000000000000","COUNTRY_CODE":"US","FILE":"3811610","RCS_SIZE":"LARGE","NORAD_CAT_ID":"54764","REF_FRAME":"TEME","EPHEMERIS_TYPE":"0","ECCENTRICITY":"0.00011520","APOAPSIS":"540.568"}];
